{"type": "FeatureCollection", "features": [ {"type": "Feature", "properties": {"norad_id": 37867, "name": "COSMOS 2476 (744)", "group": "gnss", "lat": -54.972798699050706, "lon": 38.222304239516106, "alt_km": 19107.5993566179, "timestamp": "2025-12-02T06:27:53.256201+00:00", "meta": {"OBJECT_NAME": "COSMOS 2476 (744)", "OBJECT_ID": "2011-064A", "EPOCH": "2025-12-01T09:39:55.197216", "MEAN_MOTION": 2.13101277, "ECCENTRICITY": 0.002392, "INCLINATION": 65.1564, "RA_OF_ASC_NODE": 79.5552, "ARG_OF_PERICENTER": 233.3514, "MEAN_ANOMALY": 117.0738, "EPHEMERIS_TYPE": 0, "CLASSIFICATION_TYPE": "U", "NORAD_CAT_ID": 37867, "ELEMENT_SET_NO": 999, "REV_AT_EPOCH": 10954, "BSTAR": 0, "MEAN_MOTION_DOT": -1.3e-07, "MEAN_MOTION_DDOT": 0}, "tle": {"line1": "1 37867U 11064A   25335.40272219 -.00000013  00000+0  00000+0 0  9991", "line2": "2 37867  65.1564  79.5552 0023920 233.3514 117.0738  2.13101277109540"}}, "geometry": {"type": "Point", "coordinates": [38.222304239516106, -54.972798699050706]}}, {"type": "Feature", "properties": {"norad_id": 37868, "name": "COSMOS 2477 (745)", "group": "gnss", "lat": 54.66765651106244, "lon": -141.12280571555908, "alt_km": 19148.544823315577, "timestamp": "2025-12-02T06:27:53.256213+00:00", "meta": {"OBJECT_NAME": "COSMOS 2477 (745)", "OBJECT_ID": "2011-064B", "EPOCH": "2025-12-01T05:34:43.743072", "MEAN_MOTION": 2.1310269, "ECCENTRICITY": 0.00209845, "INCLINATION": 65.1625, "RA_OF_ASC_NODE": 79.6383, "ARG_OF_PERICENTER": 233.8301, "MEAN_ANOMALY": 166.8442, "EPHEMERIS_TYPE": 0, "CLASSIFICATION_TYPE": "U", "NORAD_CAT_ID": 37868, "ELEMENT_SET_NO": 999, "REV_AT_EPOCH": 10954, "BSTAR": 0, "MEAN_MOTION_DOT": -1.2e-07, "MEAN_MOTION_DDOT": 0}, "tle": {"line1": "1 37868U 11064B   25335.23245073 -.00000012  00000+0  00000+0 0  9990", "line2": "2 37868  65.1625  79.6383 0020984 233.8301 166.8442  2.13102690109542"}}, "geometry": {"type": "Point", "coordinates": [-141.12280571555908, 54.66765651106244]}}, {"type": "Feature", "properties": {"norad_id": 37869, "name": "COSMOS 2475 (743)", "group": "gnss", "lat": 59.77362034348017, "lon": 132.1385349120317, "alt_km": 19189.515353335588, "timestamp": "2025-12-02T06:27:53.256225+00:00", "meta": {"OBJECT_NAME": "COSMOS 2475 (743)", "OBJECT_ID": "2011-064C", "EPOCH": "2025-12-01T05:41:50.555616", "MEAN_MOTION": 2.13101369, "ECCENTRICITY": 0.00260135, "INCLINATION": 65.1695, "RA_OF_ASC_NODE": 79.658, "ARG_OF_PERICENTER": 248.1873, "MEAN_ANOMALY": 112.2788, "EPHEMERIS_TYPE": 0, "CLASSIFICATION_TYPE": "U", "NORAD_CAT_ID": 37869, "ELEMENT_SET_NO": 999, "REV_AT_EPOCH": 10955, "BSTAR": 0, "MEAN_MOTION_DOT": -1.2e-07, "MEAN_MOTION_DDOT": 0}, "tle": {"line1": "1 37869U 11064C   25335.23739069 -.00000012  00000+0  00000+0 0  9994", "line2": "2 37869  65.1695  79.6580 0026013 248.1873 112.2788  2.13101369109552"}}, "geometry": {"type": "Point", "coordinates": [132.1385349120317, 59.77362034348017]}}, {"type": "Feature", "properties": {"norad_id": 37948, "name": "BEIDOU-2 IGSO-5 (C10)", "group": "gnss", "lat": -9.090700514107262, "lon": -94.31669374275737, "alt_km": 36049.335386553, "timestamp": "2025-12-02T06:27:53.256237+00:00", "meta": {"OBJECT_NAME": "BEIDOU-2 IGSO-5 (C10)", "OBJECT_ID": "2011-073A", "EPOCH": "2025-12-01T19:23:12.254208", "MEAN_MOTION": 1.00292861, "ECCENTRICITY": 0.0110883, "INCLINATION": 48.0424, "RA_OF_ASC_NODE": 273.9939, "ARG_OF_PERICENTER": 222.2372, "MEAN_ANOMALY": 317.7789, "EPHEMERIS_TYPE": 0, "CLASSIFICATION_TYPE": "U", "NORAD_CAT_ID": 37948, "ELEMENT_SET_NO": 999, "REV_AT_EPOCH": 5115, "BSTAR": 0, "MEAN_MOTION_DOT": -1.75e-06, "MEAN_MOTION_DDOT": 0}, "tle": {"line1": "1 37948U 11073A   25335.80778072 -.00000175  00000+0  00000+0 0  9992", "line2": "2 37948  48.0424 273.9939 0110883 222.2372 317.7789  1.00292861 51151"}}, "geometry": {"type": "Point", "coordinates": [-94.31669374275737, -9.090700514107262]}}, {"type": "Feature", "properties": {"norad_id": 37951, "name": "LUCH 5A (SDCM/PRN 140)", "group": "gnss", "lat": -8.08582485636736, "lon": -24.74231941676485, "alt_km": 35784.995545747304, "timestamp": "2025-12-02T06:27:53.256250+00:00", "meta": {"OBJECT_NAME": "LUCH 5A (SDCM/PRN 140)", "OBJECT_ID": "2011-074B", "EPOCH": "2025-12-01T14:36:28.056384", "MEAN_MOTION": 1.00273233, "ECCENTRICITY": 0.00058356, "INCLINATION": 8.2493, "RA_OF_ASC_NODE": 76.7495, "ARG_OF_PERICENTER": 172.6165, "MEAN_ANOMALY": 207.4453, "EPHEMERIS_TYPE": 0, "CLASSIFICATION_TYPE": "U", "NORAD_CAT_ID": 37951, "ELEMENT_SET_NO": 999, "REV_AT_EPOCH": 5107, "BSTAR": 0, "MEAN_MOTION_DOT": -2.9e-07, "MEAN_MOTION_DDOT": 0}, "tle": {"line1": "1 37951U 11074B   25335.60865806 -.00000029  00000+0  00000+0 0  9995", "line2": "2 37951   8.2493  76.7495 0005835 172.6165 207.4453  1.00273233 51079"}}, "geometry": {"type": "Point", "coordinates": [-24.74231941676485, -8.08582485636736]}}, {"type": "Feature", "properties": {"norad_id": 38091, "name": "BEIDOU-2 G5 (C05)", "group": "gnss", "lat": 1.2209483702276926, "lon": -133.07603469335538, "alt_km": 35767.33215314795, "timestamp": "2025-12-02T06:27:53.256284+00:00", "meta": {"OBJECT_NAME": "BEIDOU-2 G5 (C05)", "OBJECT_ID": "2012-008A", "EPOCH": "2025-12-01T20:45:38.742336", "MEAN_MOTION": 1.00271896, "ECCENTRICITY": 0.0012191, "INCLINATION": 3.0798, "RA_OF_ASC_NODE": 70.7388, "ARG_OF_PERICENTER": 225.3195, "MEAN_ANOMALY": 145.0297, "EPHEMERIS_TYPE": 0, "CLASSIFICATION_TYPE": "U", "NORAD_CAT_ID": 38091, "ELEMENT_SET_NO": 999, "REV_AT_EPOCH": 5039, "BSTAR": 0, "MEAN_MOTION_DOT": 7.8e-07, "MEAN_MOTION_DDOT": 0}, "tle": {"line1": "1 38091U 12008A   25335.86503174  .00000078  00000+0  00000+0 0  9997", "line2": "2 38091   3.0798  70.7388 0012191 225.3195 145.0297  1.00271896 50393"}}, "geometry": {"type": "Point", "coordinates": [-133.07603469335538, 1.2209483702276926]}}, {"type": "Feature", "properties": {"norad_id": 38250, "name": "BEIDOU-2 M3 (C11)", "group": "gnss", "lat": 55.3744405874904, "lon": 53.010293125925884, "alt_km": 21590.30775173602, "timestamp": "2025-12-02T06:27:53.256300+00:00", "meta": {"OBJECT_NAME": "BEIDOU-2 M3 (C11)", "OBJECT_ID": "2012-018A", "EPOCH": "2025-12-01T01:13:35.126400", "MEAN_MOTION": 1.86229725, "ECCENTRICITY": 0.00245382, "INCLINATION": 55.9302, "RA_OF_ASC_NODE": 311.5507, "ARG_OF_PERICENTER": 273.3676, "MEAN_ANOMALY": 86.348, "EPHEMERIS_TYPE": 0, "CLASSIFICATION_TYPE": "U", "NORAD_CAT_ID": 38250, "ELEMENT_SET_NO": 999, "REV_AT_EPOCH": 9225, "BSTAR": 0, "MEAN_MOTION_DOT": -5.3e-07, "MEAN_MOTION_DDOT": 0}, "tle": {"line1": "1 38250U 12018A   25335.05110100 -.00000053  00000+0  00000+0 0  9993", "line2": "2 38250  55.9302 311.5507 0024538 273.3676  86.3480  1.86229725 92251"}}, "geometry": {"type": "Point", "coordinates": [53.010293125925884, 55.3744405874904]}}, {"type": "Feature", "properties": {"norad_id": 38251, "name": "BEIDOU-2 M4 (C12)", "group": "gnss", "lat": 30.55523724841171, "lon": 107.08824099090182, "alt_km": 21555.11861104913, "timestamp": "2025-12-02T06:27:53.256312+00:00", "meta": {"OBJECT_NAME": "BEIDOU-2 M4 (C12)", "OBJECT_ID": "2012-018B", "EPOCH": "2025-11-30T23:35:43.237248", "MEAN_MOTION": 1.86229405, "ECCENTRICITY": 0.00156645, "INCLINATION": 55.8317, "RA_OF_ASC_NODE": 310.7829, "ARG_OF_PERICENTER": 276.4205, "MEAN_ANOMALY": 83.3972, "EPHEMERIS_TYPE": 0, "CLASSIFICATION_TYPE": "U", "NORAD_CAT_ID": 38251, "ELEMENT_SET_NO": 999, "REV_AT_EPOCH": 9225, "BSTAR": 0, "MEAN_MOTION_DOT": -5.3e-07, "MEAN_MOTION_DDOT": 0}, "tle": {"line1": "1 38251U 12018B   25334.98313932 -.00000053  00000+0  00000+0 0  9993", "line2": "2 38251  55.8317 310.7829 0015664 276.4205  83.3972  1.86229405 92255"}}, "geometry": {"type": "Point", "coordinates": [107.08824099090182, 30.55523724841171]}}, {"type": "Feature", "properties": {"norad_id": 38652, "name": "SES-5 (EGNOS/PRN 136)", "group": "gnss", "lat": -0.06294776131786053, "lon": 173.28350722622855, "alt_km": 35783.766654858075, "timestamp": "2025-12-02T06:27:53.256327+00:00", "meta": {"OBJECT_NAME": "SES-5 (EGNOS/PRN 136)", "OBJECT_ID": "2012-036A", "EPOCH": "2025-12-01T10:21:38.859264", "MEAN_MOTION": 1.00271759, "ECCENTRICITY": 0.00020278, "INCLINATION": 0.0603, "RA_OF_ASC_NODE": 301.5764, "ARG_OF_PERICENTER": 306.3545, "MEAN_ANOMALY": 343.018, "EPHEMERIS_TYPE": 0, "CLASSIFICATION_TYPE": "U", "NORAD_CAT_ID": 38652, "ELEMENT_SET_NO": 999, "REV_AT_EPOCH": 4248, "BSTAR": 0, "MEAN_MOTION_DOT": 5.6e-07, "MEAN_MOTION_DDOT": 0}, "tle": {"line1": "1 38652U 12036A   25335.43169976  .00000056  00000+0  00000+0 0  9998", "line2": "2 38652   0.0603 301.5764 0002027 306.3545 343.0180  1.00271759 42487"}}, "geometry": {"type": "Point", "coordinates": [173.28350722622855, -0.06294776131786053]}}, {"type": "Feature", "properties": {"norad_id": 38775, "name": "BEIDOU-2 M6 (C14)", "group": "gnss", "lat": -19.73289747844393, "lon": 55.62088192957156, "alt_km": 21501.13617584689, "timestamp": "2025-12-02T06:27:53.256339+00:00", "meta": {"OBJECT_NAME": "BEIDOU-2 M6 (C14)", "OBJECT_ID": "2012-050B", "EPOCH": "2025-11-30T03:46:17.715072", "MEAN_MOTION": 1.86230748, "ECCENTRICITY": 0.00108176, "INCLINATION": 56.3677, "RA_OF_ASC_NODE": 69.4852, "ARG_OF_PERICENTER": 346.8684, "MEAN_ANOMALY": 13.1099, "EPHEMERIS_TYPE": 0, "CLASSIFICATION_TYPE": "U", "NORAD_CAT_ID": 38775, "ELEMENT_SET_NO": 999, "REV_AT_EPOCH": 8960, "BSTAR": 0, "MEAN_MOTION_DOT": -3.1e-07, "MEAN_MOTION_DDOT": 0}, "tle": {"line1": "1 38775U 12050B   25334.15714948 -.00000031  00000+0  00000+0 0  9997", "line2": "2 38775  56.3677  69.4852 0010817 346.8684  13.1099  1.86230748 89601"}}, "geometry": {"type": "Point", "coordinates": [55.62088192957156, -19.73289747844393]}}]}